{
  "links" : {
    "next" : "https://api.nasa.gov/neo/rest/v1/feed?start_date=2005-01-16&end_date=2005-01-16&detailed=true&api_key=t0TVs3DtDT2H8Oy2Zy8m2eVrNsAVKAexjcZXUckd",
    "prev" : "https://api.nasa.gov/neo/rest/v1/feed?start_date=2005-01-14&end_date=2005-01-14&detailed=true&api_key=t0TVs3DtDT2H8Oy2Zy8m2eVrNsAVKAexjcZXUckd",
    "self" : "https://api.nasa.gov/neo/rest/v1/feed?start_date=2005-01-15&end_date=2005-01-15&detailed=true&api_key=t0TVs3DtDT2H8Oy2Zy8m2eVrNsAVKAexjcZXUckd"
  },
  "element_count" : 7,
  "near_earth_objects" : {
    "2005-01-15" : [ {
      "links" : {
        "self" : "https://api.nasa.gov/neo/rest/v1/neo/3412748?api_key=t0TVs3DtDT2H8Oy2Zy8m2eVrNsAVKAexjcZXUckd"
      },
      "neo_reference_id" : "3412748",
      "name" : "(2008 KS)",
      "nasa_jpl_url" : "http://ssd.jpl.nasa.gov/sbdb.cgi?sstr=3412748",
      "absolute_magnitude_h" : 24.7,
      "estimated_diameter" : {
        "kilometers" : {
          "estimated_diameter_min" : 0.0305179233,
          "estimated_diameter_max" : 0.0682401509
        },
        "meters" : {
          "estimated_diameter_min" : 30.5179232594,
          "estimated_diameter_max" : 68.2401509401
        },
        "miles" : {
          "estimated_diameter_min" : 0.0189629525,
          "estimated_diameter_max" : 0.0424024508
        },
        "feet" : {
          "estimated_diameter_min" : 100.1244233463,
          "estimated_diameter_max" : 223.8850168104
        }
      },
      "is_potentially_hazardous_asteroid" : false,
      "close_approach_data" : [ {
        "close_approach_date" : "2005-01-15",
        "epoch_date_close_approach" : 1105776000000,
        "relative_velocity" : {
          "kilometers_per_second" : "20.9094926053",
          "kilometers_per_hour" : "75274.1733789659",
          "miles_per_hour" : "46772.4440087247"
        },
        "miss_distance" : {
          "astronomical" : "0.4770042419",
          "lunar" : "185.5546417236",
          "kilometers" : "71358816",
          "miles" : "44340312"
        },
        "orbiting_body" : "Earth"
      } ],
      "orbital_data" : {
        "orbit_id" : "7",
        "orbit_determination_date" : "2017-04-06 09:03:23",
        "orbit_uncertainty" : "8",
        "minimum_orbit_intersection" : ".0888196",
        "jupiter_tisserand_invariant" : "6.112",
        "epoch_osculation" : "2454616.5",
        "eccentricity" : ".1568922134767488",
        "semi_major_axis" : ".9743543311064372",
        "inclination" : "25.45421588845765",
        "ascending_node_longitude" : "246.1053750791025",
        "orbital_period" : "351.2964870111826",
        "perihelion_distance" : ".8214857233884914",
        "perihelion_argument" : "152.7814648359599",
        "aphelion_distance" : "1.127222938824383",
        "perihelion_time" : "2454753.758227841080",
        "mean_anomaly" : "219.3411438776618",
        "mean_motion" : "1.024775405706065",
        "equinox" : "J2000"
      }
    }, {
      "links" : {
        "self" : "https://api.nasa.gov/neo/rest/v1/neo/3479128?api_key=t0TVs3DtDT2H8Oy2Zy8m2eVrNsAVKAexjcZXUckd"
      },
      "neo_reference_id" : "3479128",
      "name" : "(2009 WP106)",
      "nasa_jpl_url" : "http://ssd.jpl.nasa.gov/sbdb.cgi?sstr=3479128",
      "absolute_magnitude_h" : 25.2,
      "estimated_diameter" : {
        "kilometers" : {
          "estimated_diameter_min" : 0.0242412481,
          "estimated_diameter_max" : 0.0542050786
        },
        "meters" : {
          "estimated_diameter_min" : 24.2412481101,
          "estimated_diameter_max" : 54.2050786336
        },
        "miles" : {
          "estimated_diameter_min" : 0.0150628086,
          "estimated_diameter_max" : 0.0336814639
        },
        "feet" : {
          "estimated_diameter_min" : 79.5316564495,
          "estimated_diameter_max" : 177.8381901842
        }
      },
      "is_potentially_hazardous_asteroid" : false,
      "close_approach_data" : [ {
        "close_approach_date" : "2005-01-15",
        "epoch_date_close_approach" : 1105776000000,
        "relative_velocity" : {
          "kilometers_per_second" : "14.0215661947",
          "kilometers_per_hour" : "50477.6383010946",
          "miles_per_hour" : "31364.8414210329"
        },
        "miss_distance" : {
          "astronomical" : "0.3778129993",
          "lunar" : "146.9692687988",
          "kilometers" : "56520024",
          "miles" : "35119912"
        },
        "orbiting_body" : "Earth"
      } ],
      "orbital_data" : {
        "orbit_id" : "9",
        "orbit_determination_date" : "2017-04-06 08:58:50",
        "orbit_uncertainty" : "7",
        "minimum_orbit_intersection" : ".0307001",
        "jupiter_tisserand_invariant" : "4.710",
        "epoch_osculation" : "2458000.5",
        "eccentricity" : ".2777205309623407",
        "semi_major_axis" : "1.395100372153063",
        "inclination" : "9.856684768189488",
        "ascending_node_longitude" : "241.2586143901365",
        "orbital_period" : "601.8754216508843",
        "perihelion_distance" : "1.007652356052955",
        "perihelion_argument" : "198.2148386018614",
        "aphelion_distance" : "1.78254838825317",
        "perihelion_time" : "2458186.328757993628",
        "mean_anomaly" : "248.8501665440819",
        "mean_motion" : ".5981304220939209",
        "equinox" : "J2000"
      }
    }, {
      "links" : {
        "self" : "https://api.nasa.gov/neo/rest/v1/neo/3771633?api_key=t0TVs3DtDT2H8Oy2Zy8m2eVrNsAVKAexjcZXUckd"
      },
      "neo_reference_id" : "3771633",
      "name" : "(2017 FZ2)",
      "nasa_jpl_url" : "http://ssd.jpl.nasa.gov/sbdb.cgi?sstr=3771633",
      "absolute_magnitude_h" : 26.692,
      "estimated_diameter" : {
        "kilometers" : {
          "estimated_diameter_min" : 0.0121942467,
          "estimated_diameter_max" : 0.0272671645
        },
        "meters" : {
          "estimated_diameter_min" : 12.1942466911,
          "estimated_diameter_max" : 27.2671645358
        },
        "miles" : {
          "estimated_diameter_min" : 0.0075771513,
          "estimated_diameter_max" : 0.0169430253
        },
        "feet" : {
          "estimated_diameter_min" : 40.0073723142,
          "estimated_diameter_max" : 89.4592040956
        }
      },
      "is_potentially_hazardous_asteroid" : false,
      "close_approach_data" : [ {
        "close_approach_date" : "2005-01-15",
        "epoch_date_close_approach" : 1105776000000,
        "relative_velocity" : {
          "kilometers_per_second" : "7.4922550867",
          "kilometers_per_hour" : "26972.1183122697",
          "miles_per_hour" : "16759.4254035323"
        },
        "miss_distance" : {
          "astronomical" : "0.2751613004",
          "lunar" : "107.0377426147",
          "kilometers" : "41163544",
          "miles" : "25577840"
        },
        "orbiting_body" : "Earth"
      } ],
      "orbital_data" : {
        "orbit_id" : "7",
        "orbit_determination_date" : "2017-06-20 13:03:38",
        "orbit_uncertainty" : "3",
        "minimum_orbit_intersection" : ".00138825",
        "jupiter_tisserand_invariant" : "6.015",
        "epoch_osculation" : "2458000.5",
        "eccentricity" : ".2640538859757104",
        "semi_major_axis" : "1.007138471483015",
        "inclination" : "1.811674081309308",
        "ascending_node_longitude" : "185.8691790850466",
        "orbital_period" : "369.1749337279458",
        "perihelion_distance" : ".7411996443722877",
        "perihelion_argument" : "100.3230370449916",
        "aphelion_distance" : "1.273077298593743",
        "perihelion_time" : "2457910.968954695910",
        "mean_anomaly" : "87.30597168123131",
        "mean_motion" : ".9751474629241565",
        "equinox" : "J2000"
      }
    } ]
  }
}